[{"OBJECT_NAME":"LYNK TOWER 6","OBJECT_ID":"2024-043AB","EPOCH":"2026-03-09T21:28:38.303328","MEAN_MOTION":15.29548678,"ECCENTRICITY":0.00097492,"INCLINATION":97.5426,"RA_OF_ASC_NODE":204.1954,"ARG_OF_PERICENTER":232.0253,"MEAN_ANOMALY":128.0107,"EPHEMERIS_TYPE":0,"CLASSIFICATION_TYPE":"U","NORAD_CAT_ID":59123,"ELEMENT_SET_NO":999,"REV_AT_EPOCH":11184,"BSTAR":0.00040142146,"MEAN_MOTION_DOT":0.0001144,"MEAN_MOTION_DDOT":0},{"OBJECT_NAME":"STARLINK-34891","OBJECT_ID":"2025-190Y","EPOCH":"2026-03-09T13:49:49.690848","MEAN_MOTION":15.30188856,"ECCENTRICITY":9.52e-5,"INCLINATION":53.1581,"RA_OF_ASC_NODE":168.9954,"ARG_OF_PERICENTER":78.1104,"MEAN_ANOMALY":282.0003,"EPHEMERIS_TYPE":0,"CLASSIFICATION_TYPE":"U","NORAD_CAT_ID":65373,"ELEMENT_SET_NO":999,"REV_AT_EPOCH":2921,"BSTAR":0.0011881,"MEAN_MOTION_DOT":0.00034981,"MEAN_MOTION_DDOT":0}]
